STARLINK-36957          
1 67989U 26039D   26076.83335647 -.01938355  00000+0 -18937-1 0  9993
2 67989  42.9996   5.1978 0001630 256.4637  78.0745 15.68348070  4189
STARLINK-36951          
1 67990U 26039E   26076.58335648 -.01933115  00000+0 -21314-1 0  9990
2 67990  42.9998   6.8140 0001670 257.4328  57.2236 15.65390210  4144
STARLINK-36941          
1 67991U 26039F   26076.83335647 -.00548571  00000+0 -98974-2 0  9992
2 67991  42.9996   5.9814 0001161 236.0209 142.1563 15.50915508  4185
STARLINK-36950          
1 67992U 26039G   26076.83335647 -.01893097  00000+0 -29118-1 0  9993
2 67992  43.0000   5.6450 0001051 259.4334 254.9658 15.56805177  4186
STARLINK-36975          
1 67993U 26039H   26076.83335647 -.01890223  00000+0 -27677-1 0  9990
2 67993  43.0001   5.5662 0001266 255.4766 290.5229 15.58095788  4186
STARLINK-36993          
1 67994U 26039J   26076.83335647 -.01951860  00000+0 -18920-1 0  9997
2 67994  42.9999   5.1382 0001599 260.0108  98.2494 15.68558952  4182
STARLINK-36968          
1 67995U 26039K   26076.83335647 -.01882700  00000+0 -31396-1 0  9996
2 67995  42.9999   5.7240 0001349 262.5808 219.5799 15.54621577  4184
STARLINK-36979          
1 67996U 26039L   26076.83335647 -.01948219  00000+0 -17670-1 0  9994
2 67996  42.9998   5.0838 0001566 263.3459 116.4939 15.70139517  4189
STARLINK-36994          
1 67997U 26039M   26076.83335647 -.01919300  00000+0 -22170-1 0  9995
2 67997  42.9999   5.2388 0001690 252.2572  64.7303 15.64210054  4183
STARLINK-36988          
1 67998U 26039N   26076.83335647 -.01919887  00000+0 -21273-1 0  9999
2 67998  42.9998   5.2117 0001590 254.5509  73.5777 15.65246802  4181
STARLINK-36926          
1 67999U 26039P   26076.83335647 -.01918774  00000+0 -21997-1 0  9997
2 67999  42.9998   5.2216 0001547 252.9349  71.1714 15.64399718  4187
STARLINK-36931          
1 68000U 26039Q   26076.83335647 -.01938621  00000+0 -18855-1 0  9993
2 68000  42.9999   5.0761 0001496 261.0240 121.8043 15.68458588  4182
