CCSDS_OMM_VERS = 2.0
CREATION_DATE  = 
ORIGINATOR     = 

OBJECT_NAME    = STARLINK-36957
OBJECT_ID      = 2026-039D
CENTER_NAME    = EARTH
REF_FRAME      = TEME
TIME_SYSTEM    = UTC
MEAN_ELEMENT_THEORY = SGP/SGP4

EPOCH          = 2026-03-17T20:00:01.999008
MEAN_MOTION    = 15.68348070
ECCENTRICITY   = .000163
INCLINATION    = 42.9996
RA_OF_ASC_NODE = 5.1978
ARG_OF_PERICENTER = 256.4637
MEAN_ANOMALY   = 78.0745

EPHEMERIS_TYPE = 0
CLASSIFICATION_TYPE = U
NORAD_CAT_ID   = 67989
ELEMENT_SET_NO = 999
REV_AT_EPOCH   = 418
BSTAR          = -.18937E-1
MEAN_MOTION_DOT = -.1938355E-1
MEAN_MOTION_DDOT = 0

CCSDS_OMM_VERS = 2.0
CREATION_DATE  = 
ORIGINATOR     = 

OBJECT_NAME    = STARLINK-36951
OBJECT_ID      = 2026-039E
CENTER_NAME    = EARTH
REF_FRAME      = TEME
TIME_SYSTEM    = UTC
MEAN_ELEMENT_THEORY = SGP/SGP4

EPOCH          = 2026-03-17T14:00:01.999872
MEAN_MOTION    = 15.65390210
ECCENTRICITY   = .00016706
INCLINATION    = 42.9998
RA_OF_ASC_NODE = 6.8140
ARG_OF_PERICENTER = 257.4328
MEAN_ANOMALY   = 57.2236

EPHEMERIS_TYPE = 0
CLASSIFICATION_TYPE = U
NORAD_CAT_ID   = 67990
ELEMENT_SET_NO = 999
REV_AT_EPOCH   = 414
BSTAR          = -.21313701E-1
MEAN_MOTION_DOT = -.1933115E-1
MEAN_MOTION_DDOT = 0

CCSDS_OMM_VERS = 2.0
CREATION_DATE  = 
ORIGINATOR     = 

OBJECT_NAME    = STARLINK-36941
OBJECT_ID      = 2026-039F
CENTER_NAME    = EARTH
REF_FRAME      = TEME
TIME_SYSTEM    = UTC
MEAN_ELEMENT_THEORY = SGP/SGP4

EPOCH          = 2026-03-17T20:00:01.999008
MEAN_MOTION    = 15.50915508
ECCENTRICITY   = .0001161
INCLINATION    = 42.9996
RA_OF_ASC_NODE = 5.9814
ARG_OF_PERICENTER = 236.0209
MEAN_ANOMALY   = 142.1563

EPHEMERIS_TYPE = 0
CLASSIFICATION_TYPE = U
NORAD_CAT_ID   = 67991
ELEMENT_SET_NO = 999
REV_AT_EPOCH   = 418
BSTAR          = -.98974E-2
MEAN_MOTION_DOT = -.548571E-2
MEAN_MOTION_DDOT = 0

CCSDS_OMM_VERS = 2.0
CREATION_DATE  = 
ORIGINATOR     = 

OBJECT_NAME    = STARLINK-36950
OBJECT_ID      = 2026-039G
CENTER_NAME    = EARTH
REF_FRAME      = TEME
TIME_SYSTEM    = UTC
MEAN_ELEMENT_THEORY = SGP/SGP4

EPOCH          = 2026-03-17T20:00:01.999008
MEAN_MOTION    = 15.56805177
ECCENTRICITY   = .0001051
INCLINATION    = 43.0000
RA_OF_ASC_NODE = 5.6450
ARG_OF_PERICENTER = 259.4334
MEAN_ANOMALY   = 254.9658

EPHEMERIS_TYPE = 0
CLASSIFICATION_TYPE = U
NORAD_CAT_ID   = 67992
ELEMENT_SET_NO = 999
REV_AT_EPOCH   = 418
BSTAR          = -.29118E-1
MEAN_MOTION_DOT = -.1893097E-1
MEAN_MOTION_DDOT = 0

CCSDS_OMM_VERS = 2.0
CREATION_DATE  = 
ORIGINATOR     = 

OBJECT_NAME    = STARLINK-36975
OBJECT_ID      = 2026-039H
CENTER_NAME    = EARTH
REF_FRAME      = TEME
TIME_SYSTEM    = UTC
MEAN_ELEMENT_THEORY = SGP/SGP4

EPOCH          = 2026-03-17T20:00:01.999008
MEAN_MOTION    = 15.58095788
ECCENTRICITY   = .0001266
INCLINATION    = 43.0001
RA_OF_ASC_NODE = 5.5662
ARG_OF_PERICENTER = 255.4766
MEAN_ANOMALY   = 290.5229

EPHEMERIS_TYPE = 0
CLASSIFICATION_TYPE = U
NORAD_CAT_ID   = 67993
ELEMENT_SET_NO = 999
REV_AT_EPOCH   = 418
BSTAR          = -.27677E-1
MEAN_MOTION_DOT = -.1890223E-1
MEAN_MOTION_DDOT = 0

CCSDS_OMM_VERS = 2.0
CREATION_DATE  = 
ORIGINATOR     = 

OBJECT_NAME    = STARLINK-36993
OBJECT_ID      = 2026-039J
CENTER_NAME    = EARTH
REF_FRAME      = TEME
TIME_SYSTEM    = UTC
MEAN_ELEMENT_THEORY = SGP/SGP4

EPOCH          = 2026-03-17T20:00:01.999008
MEAN_MOTION    = 15.68558952
ECCENTRICITY   = .0001599
INCLINATION    = 42.9999
RA_OF_ASC_NODE = 5.1382
ARG_OF_PERICENTER = 260.0108
MEAN_ANOMALY   = 98.2494

EPHEMERIS_TYPE = 0
CLASSIFICATION_TYPE = U
NORAD_CAT_ID   = 67994
ELEMENT_SET_NO = 999
REV_AT_EPOCH   = 418
BSTAR          = -.1892E-1
MEAN_MOTION_DOT = -.195186E-1
MEAN_MOTION_DDOT = 0

CCSDS_OMM_VERS = 2.0
CREATION_DATE  = 
ORIGINATOR     = 

OBJECT_NAME    = STARLINK-36968
OBJECT_ID      = 2026-039K
CENTER_NAME    = EARTH
REF_FRAME      = TEME
TIME_SYSTEM    = UTC
MEAN_ELEMENT_THEORY = SGP/SGP4

EPOCH          = 2026-03-17T20:00:01.999008
MEAN_MOTION    = 15.54621577
ECCENTRICITY   = .0001349
INCLINATION    = 42.9999
RA_OF_ASC_NODE = 5.7240
ARG_OF_PERICENTER = 262.5808
MEAN_ANOMALY   = 219.5799

EPHEMERIS_TYPE = 0
CLASSIFICATION_TYPE = U
NORAD_CAT_ID   = 67995
ELEMENT_SET_NO = 999
REV_AT_EPOCH   = 418
BSTAR          = -.31396E-1
MEAN_MOTION_DOT = -.18827E-1
MEAN_MOTION_DDOT = 0

CCSDS_OMM_VERS = 2.0
CREATION_DATE  = 
ORIGINATOR     = 

OBJECT_NAME    = STARLINK-36979
OBJECT_ID      = 2026-039L
CENTER_NAME    = EARTH
REF_FRAME      = TEME
TIME_SYSTEM    = UTC
MEAN_ELEMENT_THEORY = SGP/SGP4

EPOCH          = 2026-03-17T20:00:01.999008
MEAN_MOTION    = 15.70139517
ECCENTRICITY   = .0001566
INCLINATION    = 42.9998
RA_OF_ASC_NODE = 5.0838
ARG_OF_PERICENTER = 263.3459
MEAN_ANOMALY   = 116.4939

EPHEMERIS_TYPE = 0
CLASSIFICATION_TYPE = U
NORAD_CAT_ID   = 67996
ELEMENT_SET_NO = 999
REV_AT_EPOCH   = 418
BSTAR          = -.1767E-1
MEAN_MOTION_DOT = -.1948219E-1
MEAN_MOTION_DDOT = 0

CCSDS_OMM_VERS = 2.0
CREATION_DATE  = 
ORIGINATOR     = 

OBJECT_NAME    = STARLINK-36994
OBJECT_ID      = 2026-039M
CENTER_NAME    = EARTH
REF_FRAME      = TEME
TIME_SYSTEM    = UTC
MEAN_ELEMENT_THEORY = SGP/SGP4

EPOCH          = 2026-03-17T20:00:01.999008
MEAN_MOTION    = 15.64210054
ECCENTRICITY   = .000169
INCLINATION    = 42.9999
RA_OF_ASC_NODE = 5.2388
ARG_OF_PERICENTER = 252.2572
MEAN_ANOMALY   = 64.7303

EPHEMERIS_TYPE = 0
CLASSIFICATION_TYPE = U
NORAD_CAT_ID   = 67997
ELEMENT_SET_NO = 999
REV_AT_EPOCH   = 418
BSTAR          = -.2217E-1
MEAN_MOTION_DOT = -.19193E-1
MEAN_MOTION_DDOT = 0

CCSDS_OMM_VERS = 2.0
CREATION_DATE  = 
ORIGINATOR     = 

OBJECT_NAME    = STARLINK-36988
OBJECT_ID      = 2026-039N
CENTER_NAME    = EARTH
REF_FRAME      = TEME
TIME_SYSTEM    = UTC
MEAN_ELEMENT_THEORY = SGP/SGP4

EPOCH          = 2026-03-17T20:00:01.999008
MEAN_MOTION    = 15.65246802
ECCENTRICITY   = .000159
INCLINATION    = 42.9998
RA_OF_ASC_NODE = 5.2117
ARG_OF_PERICENTER = 254.5509
MEAN_ANOMALY   = 73.5777

EPHEMERIS_TYPE = 0
CLASSIFICATION_TYPE = U
NORAD_CAT_ID   = 67998
ELEMENT_SET_NO = 999
REV_AT_EPOCH   = 418
BSTAR          = -.21273E-1
MEAN_MOTION_DOT = -.1919887E-1
MEAN_MOTION_DDOT = 0

CCSDS_OMM_VERS = 2.0
CREATION_DATE  = 
ORIGINATOR     = 

OBJECT_NAME    = STARLINK-36926
OBJECT_ID      = 2026-039P
CENTER_NAME    = EARTH
REF_FRAME      = TEME
TIME_SYSTEM    = UTC
MEAN_ELEMENT_THEORY = SGP/SGP4

EPOCH          = 2026-03-17T20:00:01.999008
MEAN_MOTION    = 15.64399718
ECCENTRICITY   = .0001547
INCLINATION    = 42.9998
RA_OF_ASC_NODE = 5.2216
ARG_OF_PERICENTER = 252.9349
MEAN_ANOMALY   = 71.1714

EPHEMERIS_TYPE = 0
CLASSIFICATION_TYPE = U
NORAD_CAT_ID   = 67999
ELEMENT_SET_NO = 999
REV_AT_EPOCH   = 418
BSTAR          = -.21997E-1
MEAN_MOTION_DOT = -.1918774E-1
MEAN_MOTION_DDOT = 0

CCSDS_OMM_VERS = 2.0
CREATION_DATE  = 
ORIGINATOR     = 

OBJECT_NAME    = STARLINK-36931
OBJECT_ID      = 2026-039Q
CENTER_NAME    = EARTH
REF_FRAME      = TEME
TIME_SYSTEM    = UTC
MEAN_ELEMENT_THEORY = SGP/SGP4

EPOCH          = 2026-03-17T20:00:01.999008
MEAN_MOTION    = 15.68458588
ECCENTRICITY   = .0001496
INCLINATION    = 42.9999
RA_OF_ASC_NODE = 5.0761
ARG_OF_PERICENTER = 261.0240
MEAN_ANOMALY   = 121.8043

EPHEMERIS_TYPE = 0
CLASSIFICATION_TYPE = U
NORAD_CAT_ID   = 68000
ELEMENT_SET_NO = 999
REV_AT_EPOCH   = 418
BSTAR          = -.18855E-1
MEAN_MOTION_DOT = -.1938621E-1
MEAN_MOTION_DDOT = 0

